[{"OBJECT_NAME":"STARLINK-32525","OBJECT_ID":"2024-222H","EPOCH":"2026-03-09T05:47:27.140640","MEAN_MOTION":15.27587818,"ECCENTRICITY":2.847e-5,"INCLINATION":42.9961,"RA_OF_ASC_NODE":138.4382,"ARG_OF_PERICENTER":215.4842,"MEAN_ANOMALY":144.5991,"EPHEMERIS_TYPE":0,"CLASSIFICATION_TYPE":"U","NORAD_CAT_ID":62121,"ELEMENT_SET_NO":999,"REV_AT_EPOCH":7269,"BSTAR":0.0010172524,"MEAN_MOTION_DOT":0.00027843,"MEAN_MOTION_DDOT":0},{"OBJECT_NAME":"OBJECT N","OBJECT_ID":"2019-093N","EPOCH":"2026-03-09T21:41:56.087232","MEAN_MOTION":15.29897693,"ECCENTRICITY":0.0006278,"INCLINATION":98.0505,"RA_OF_ASC_NODE":226.9456,"ARG_OF_PERICENTER":33.3806,"MEAN_ANOMALY":326.7828,"EPHEMERIS_TYPE":0,"CLASSIFICATION_TYPE":"U","NORAD_CAT_ID":44891,"ELEMENT_SET_NO":999,"REV_AT_EPOCH":33957,"BSTAR":0.0010567776,"MEAN_MOTION_DOT":0.00030617,"MEAN_MOTION_DDOT":0}]
